[{"OBJECT_NAME":"LATINSAT A","OBJECT_ID":"2002-058H","EPOCH":"2026-03-09T22:00:26.760960","MEAN_MOTION":14.85263124,"ECCENTRICITY":0.00565777,"INCLINATION":64.5529,"RA_OF_ASC_NODE":269.8516,"ARG_OF_PERICENTER":262.8341,"MEAN_ANOMALY":96.6332,"EPHEMERIS_TYPE":0,"CLASSIFICATION_TYPE":"U","NORAD_CAT_ID":27612,"ELEMENT_SET_NO":999,"REV_AT_EPOCH":25288,"BSTAR":0.00015857266,"MEAN_MOTION_DOT":1.248e-5,"MEAN_MOTION_DDOT":0},{"OBJECT_NAME":"SAC-D","OBJECT_ID":"2011-024A","EPOCH":"2026-03-09T22:52:48.165600","MEAN_MOTION":14.78448878,"ECCENTRICITY":0.0001994,"INCLINATION":97.983,"RA_OF_ASC_NODE":83.7212,"ARG_OF_PERICENTER":86.8507,"MEAN_ANOMALY":333.604,"EPHEMERIS_TYPE":0,"CLASSIFICATION_TYPE":"U","NORAD_CAT_ID":37673,"ELEMENT_SET_NO":999,"REV_AT_EPOCH":79312,"BSTAR":0.00018445748,"MEAN_MOTION_DOT":1.293e-5,"MEAN_MOTION_DDOT":0}]
